{"type": "FeatureCollection", "features": [{"type": "Feature", "geometry": {"type": "MultiPolygon", "coordinates": [[[[10.1220788, 53.5198397], [10.1221526, 53.5198787], [10.1220148, 53.5200061], [10.1219317, 53.5202931], [10.122288, 53.5207263], [10.1225911, 53.5213825], [10.1224221, 53.5214662], [10.1220828, 53.5212063], [10.1217341, 53.5210572], [10.1214431, 53.5210333], [10.1211508, 53.5210763], [10.1209228, 53.5211569], [10.1202884, 53.5215396], [10.1197483, 53.52182], [10.1197134, 53.5218073], [10.1194341, 53.5219901], [10.1185963, 53.5223718], [10.1183337, 53.5226035], [10.1180099, 53.5230608], [10.1178718, 53.5231846], [10.1176934, 53.523251], [10.1174659, 53.5232908], [10.1171254, 53.5232478], [10.1168418, 53.5232952], [10.1163483, 53.5234539], [10.1155524, 53.5236024], [10.115125, 53.5237036], [10.1144801, 53.523784], [10.1129658, 53.5242093], [10.1124872, 53.5243519], [10.112215, 53.524472], [10.1119674, 53.5246477], [10.1116249, 53.5250311], [10.111465, 53.525477], [10.1115613, 53.5257876], [10.1109102, 53.52586], [10.1104732, 53.5258071], [10.1105933, 53.5256683], [10.1106764, 53.5255107], [10.1100903, 53.5252743], [10.1100144, 53.5253697], [10.109735, 53.5251883], [10.1093738, 53.5251303], [10.1084891, 53.5244928], [10.1083083, 53.5245762], [10.1081563, 53.5244644], [10.1083513, 53.5243545], [10.1052681, 53.5222047], [10.1029178, 53.5205218], [10.1005327, 53.5188095], [10.1001778, 53.5189751], [10.0988886, 53.5186371], [10.0976983, 53.5177423], [10.0977507, 53.5177215], [10.0972119, 53.517311], [10.0972583, 53.5172846], [10.0966653, 53.5168433], [10.0966249, 53.5168583], [10.0964172, 53.5167029], [10.0964514, 53.5166825], [10.0962074, 53.5165218], [10.0962881, 53.5164823], [10.096163, 53.5163863], [10.0961509, 53.5163419], [10.0959532, 53.5162784], [10.0958806, 53.516282], [10.0957289, 53.5163618], [10.0931817, 53.5145297], [10.0934968, 53.5143315], [10.0932464, 53.5137674], [10.092023, 53.5130815], [10.0915939, 53.512845], [10.0913496, 53.5126114], [10.0907012, 53.5116791], [10.0902192, 53.5110276], [10.0895697, 53.5109338], [10.0892764, 53.5111189], [10.0890108, 53.5113826], [10.0881261, 53.5118017], [10.0681485, 53.5242181], [10.0682615, 53.5243158], [10.0685369, 53.5243678], [10.0686671, 53.5243563], [10.0685317, 53.5245829], [10.068682, 53.5246546], [10.0687692, 53.5248455], [10.068294, 53.5249748], [10.0679288, 53.5249724], [10.067976, 53.5250396], [10.0661875, 53.5254688], [10.0644146, 53.5247098], [10.0650482, 53.5241945], [10.0658533, 53.5215633], [10.0656723, 53.5196621], [10.071238, 53.5146292], [10.0719312, 53.5139223], [10.0725148, 53.5132141], [10.0729885, 53.5121793], [10.0731968, 53.5111663], [10.0699653, 53.5109935], [10.0693988, 53.5108901], [10.0694602, 53.5096045], [10.0695045, 53.5089295], [10.0695863, 53.5089163], [10.0695527, 53.5085832], [10.0696213, 53.508293], [10.069719, 53.5077983], [10.0697865, 53.5074753], [10.0698385, 53.5072787], [10.0699384, 53.5069893], [10.070193, 53.5061969], [10.0703787, 53.505782], [10.0707332, 53.5050097], [10.0704055, 53.5049486], [10.0704716, 53.5047863], [10.0704153, 53.5046248], [10.0702338, 53.5043404], [10.0694868, 53.5031899], [10.0684782, 53.5016461], [10.0681895, 53.5011966], [10.0674488, 53.5000698], [10.0667407, 53.5003002], [10.0654351, 53.5007954], [10.0649253, 53.5010285], [10.0643281, 53.5013117], [10.063839, 53.5015809], [10.0635052, 53.5017666], [10.0630893, 53.5020394], [10.0626323, 53.5023435], [10.0620379, 53.5028171], [10.0618715, 53.5029543], [10.0614778, 53.5033356], [10.0611428, 53.5036892], [10.0607624, 53.5041344], [10.0606682, 53.5042703], [10.0602922, 53.5048297], [10.0601458, 53.5051252], [10.0599872, 53.5054365], [10.0598164, 53.5058745], [10.0596678, 53.5062947], [10.0580902, 53.5066395], [10.0569518, 53.5050189], [10.0554308, 53.5030182], [10.0535513, 53.5003968], [10.0521694, 53.4980655], [10.0516429, 53.4970711], [10.0514054, 53.4964565], [10.0511935, 53.4956044], [10.0510373, 53.4946623], [10.0510492, 53.4938076], [10.0511792, 53.4920777], [10.0517109, 53.4882371], [10.0518922, 53.487301], [10.0521624, 53.4865018], [10.0524503, 53.4857113], [10.0530469, 53.4847496], [10.0539821, 53.4836552], [10.0553873, 53.4822588], [10.0562026, 53.4815849], [10.0587976, 53.4796551], [10.0598124, 53.4786311], [10.0603705, 53.4778538], [10.0607804, 53.4771633], [10.0616173, 53.475345], [10.0622347, 53.4734015], [10.0623984, 53.472307], [10.0624842, 53.4708794], [10.062649, 53.4693042], [10.0629736, 53.4678624], [10.064732, 53.4633348], [10.0654077, 53.4620725], [10.0668132, 53.460383], [10.0680081, 53.4592768], [10.0689394, 53.4585307], [10.0701163, 53.4577271], [10.0741745, 53.4551934], [10.0789512, 53.4538769], [10.0716028, 53.4547384], [10.0694661, 53.4551743], [10.0682925, 53.4555051], [10.0669067, 53.4560205], [10.0647191, 53.4570227], [10.0578741, 53.4604996], [10.0532168, 53.4629063], [10.0523534, 53.4634112], [10.0516158, 53.4639106], [10.0500221, 53.4651056], [10.0484484, 53.4664638], [10.048053, 53.4668055], [10.0465655, 53.4679298], [10.0446975, 53.4690838], [10.0431255, 53.4699109], [10.0396822, 53.471362], [10.037178, 53.472365], [10.0354399, 53.4729052], [10.0330602, 53.4735527], [10.0310326, 53.4740058], [10.0287247, 53.474358], [10.0257862, 53.4745709], [10.0248194, 53.4745828], [10.02327, 53.4744696], [10.0202479, 53.4742488], [10.0163636, 53.4737152], [10.0163394, 53.4737514], [10.0070396, 53.4726402], [10.0039959, 53.472441], [10.0013759, 53.4725713], [10.0000209, 53.4727318], [9.9983788, 53.4730429], [9.9961667, 53.4734677], [9.9900832, 53.4745007], [9.9870953, 53.4748966], [9.9845052, 53.4753374], [9.9821573, 53.4757011], [9.9779752, 53.4767072], [9.9752281, 53.4774951], [9.974041, 53.4778945], [9.9702009, 53.4796042], [9.9632937, 53.4828702], [9.9618177, 53.483676], [9.9599475, 53.4850189], [9.9578105, 53.4868871], [9.9559736, 53.4889009], [9.9530812, 53.4926941], [9.9516736, 53.4950326], [9.9511188, 53.4957657], [9.9505663, 53.4964008], [9.949847, 53.4970842], [9.9490589, 53.4976581], [9.9459947, 53.4994131], [9.9441598, 53.5007148], [9.9426168, 53.5021862], [9.941715, 53.5033378], [9.9412017, 53.5043044], [9.9410713, 53.5048469], [9.9406367, 53.5059604], [9.9401861, 53.5086052], [9.9399171, 53.5113936], [9.9391957, 53.5167671], [9.9388236, 53.5200853], [9.9388148, 53.5217156], [9.9353606, 53.5221334], [9.9344121, 53.5222052], [9.9342984, 53.5220299], [9.9341315, 53.5219433], [9.9339148, 53.5218757], [9.9334245, 53.5217764], [9.9328846, 53.5216497], [9.9317869, 53.5211787], [9.9312895, 53.520864], [9.9299609, 53.5196876], [9.9291332, 53.5189674], [9.9284227, 53.5184943], [9.9281527, 53.5183781], [9.9278756, 53.5182979], [9.927666, 53.5181183], [9.9273499, 53.5176156], [9.9264618, 53.5164666], [9.9261527, 53.5161497], [9.9260035, 53.5160779], [9.9258756, 53.5160272], [9.9257229, 53.5159364], [9.9257477, 53.5158329], [9.9255843, 53.5158097], [9.9251012, 53.5158308], [9.9243303, 53.5158688], [9.923872, 53.5158604], [9.9234884, 53.5157653], [9.9223623, 53.5154062], [9.9212432, 53.5152034], [9.9198898, 53.5149647], [9.9192823, 53.5147567], [9.9185061, 53.5144852], [9.9183658, 53.5144831], [9.9179288, 53.514575], [9.9175558, 53.5146891], [9.9167192, 53.5150017], [9.9159803, 53.5149257], [9.9153533, 53.5147894], [9.9148595, 53.514631], [9.9146588, 53.5145549], [9.9145878, 53.5144398], [9.9145558, 53.5143141], [9.9145043, 53.5142381], [9.9144226, 53.5141906], [9.9142467, 53.5141694], [9.9140549, 53.5141515], [9.9139252, 53.5141568], [9.9137565, 53.5141916], [9.9134972, 53.5142729], [9.9129643, 53.5141335], [9.9126037, 53.5139994], [9.9125753, 53.5138082], [9.9117991, 53.5135188], [9.9116996, 53.5135907], [9.9116179, 53.5136414], [9.9114492, 53.5136656], [9.9110993, 53.5135959], [9.9105788, 53.5135051], [9.9105025, 53.5135315], [9.9104172, 53.5136223], [9.9096481, 53.513503], [9.9091472, 53.513334], [9.9088133, 53.5132675], [9.9082733, 53.5132421], [9.9073657, 53.5132495], [9.906792, 53.5132896], [9.905204, 53.5134016], [9.9044616, 53.5134502], [9.9035841, 53.5135262], [9.9028044, 53.513654], [9.9017706, 53.5138748], [9.9000317, 53.5143342], [9.8976311, 53.5149674], [9.8959766, 53.5154062], [9.8948949, 53.5157167], [9.8942394, 53.5159607], [9.8931648, 53.5164222], [9.8916995, 53.5170538], [9.8909978, 53.5172882], [9.8903264, 53.517491], [9.889536, 53.5176589], [9.8891026, 53.5177223], [9.8887669, 53.5177561], [9.8881524, 53.5178099], [9.8879214, 53.5178237], [9.8873545, 53.5178247], [9.8864277, 53.517824], [9.8858764, 53.5179133], [9.8854725, 53.5180593], [9.8852931, 53.5181687], [9.885032, 53.5183861], [9.8848646, 53.5186273], [9.8848006, 53.5188698], [9.88451, 53.518877], [9.8845292, 53.5190567], [9.8839563, 53.5190969], [9.8833378, 53.5190912], [9.8819456, 53.5190003], [9.8811173, 53.5189996], [9.8801604, 53.5189901], [9.8785396, 53.5190168], [9.878152, 53.5190264], [9.8781448, 53.5188367], [9.8778664, 53.5186364], [9.8771281, 53.5181094], [9.8761065, 53.5185298], [9.8753177, 53.5187198], [9.8705208, 53.5192553], [9.867452, 53.5192968], [9.8658557, 53.5191001], [9.8635842, 53.5185998], [9.8607251, 53.5177066], [9.8582738, 53.5172012], [9.8544127, 53.5167889], [9.8463249, 53.5165322], [9.8451381, 53.5158833], [9.8421967, 53.515664], [9.8376883, 53.5165011], [9.8345227, 53.5173015], [9.8321134, 53.5186249], [9.8307266, 53.5196189], [9.8298439, 53.5204065], [9.8294128, 53.5207878], [9.8287657, 53.5217224], [9.8280054, 53.5229971], [9.8274153, 53.5241324], [9.8266911, 53.5259182], [9.8264101, 53.5270912], [9.8264301, 53.5294518], [9.8239187, 53.5287671], [9.8235382, 53.5287132], [9.8218843, 53.5280016], [9.8204415, 53.5279998], [9.8179409, 53.5284327], [9.8175544, 53.529139], [9.8164317, 53.5293286], [9.8147312, 53.5297384], [9.8136502, 53.5298978], [9.8129234, 53.5301481], [9.8122367, 53.530333], [9.8120141, 53.5303442], [9.8113245, 53.5305122], [9.8096645, 53.5307173], [9.8089859, 53.5307093], [9.8073605, 53.5310128], [9.8069836, 53.5308002], [9.8066846, 53.5308034], [9.8063962, 53.5309955], [9.8060556, 53.5311326], [9.8047994, 53.5314072], [9.8013174, 53.5324901], [9.7995955, 53.5331899], [9.7989115, 53.5333653], [9.7987801, 53.5334912], [9.7980581, 53.5337505], [9.796468, 53.5341225], [9.7958967, 53.5341951], [9.7941425, 53.5351954], [9.7927263, 53.5359908], [9.7920951, 53.5361631], [9.7906964, 53.5363655], [9.7906483, 53.5364974], [9.7904285, 53.5365672], [9.7903176, 53.5365472], [9.7901695, 53.5365205], [9.7900421, 53.5364555], [9.7893638, 53.5366173], [9.7889292, 53.536723], [9.788251, 53.5368853], [9.7876479, 53.537137], [9.7868362, 53.5374757], [9.7856712, 53.5376504], [9.7854014, 53.5377629], [9.7848893, 53.5379843], [9.7843418, 53.5382217], [9.7829322, 53.5386832], [9.7817514, 53.5391366], [9.7812894, 53.5393478], [9.7804331, 53.5397414], [9.779562, 53.5402118], [9.7788221, 53.5406097], [9.778168, 53.5409351], [9.7763193, 53.5415953], [9.7759437, 53.541863], [9.7754395, 53.5421069], [9.7746375, 53.5425882], [9.7743998, 53.5426923], [9.7736122, 53.542903], [9.7723167, 53.543523], [9.7725386, 53.5446408], [9.7731055, 53.5477835], [9.7735914, 53.5500572], [9.7736614, 53.5503892], [9.7743919, 53.5543254], [9.7775981, 53.5571351], [9.7939357, 53.5550334], [9.7978143, 53.554552], [9.8034077, 53.5536164], [9.8184359, 53.5511347], [9.8204171, 53.5508], [9.8210982, 53.5506905], [9.8324455, 53.5487857], [9.8405653, 53.5474533], [9.8513044, 53.5459366], [9.8642564, 53.5442254], [9.871155, 53.5434302], [9.8826429, 53.5421175], [9.8877715, 53.5419022], [9.893968, 53.5417364], [9.9131013, 53.5415406], [9.9216382, 53.5415333], [9.9277069, 53.5417787], [9.9298607, 53.5418574], [9.9357479, 53.5420852], [9.9412533, 53.5423016], [9.9432811, 53.5423692], [9.9446425, 53.5423777], [9.9462852, 53.5424852], [9.9506838, 53.5427298], [9.9517238, 53.5429343], [9.9544147, 53.5434633], [9.9545109, 53.5433199], [9.9574951, 53.5438867], [9.9586888, 53.5440739], [9.9602617, 53.5442448], [9.9601181, 53.546344], [9.9601201, 53.5463678], [9.9595426, 53.546391], [9.9595343, 53.546336], [9.9588589, 53.5463068], [9.9584949, 53.5462866], [9.9582518, 53.5462446], [9.9579644, 53.5461588], [9.9578911, 53.5461399], [9.9578965, 53.5463894], [9.9574638, 53.5463892], [9.9573988, 53.5466811], [9.957261, 53.5474191], [9.956909, 53.5474123], [9.9566838, 53.5475716], [9.9571188, 53.5477749], [9.9571242, 53.5477949], [9.9560014, 53.5480773], [9.9559829, 53.548082], [9.9550729, 53.5484653], [9.9549651, 53.5485107], [9.9551135, 53.5486137], [9.9550482, 53.5486964], [9.9552464, 53.5490385], [9.9555706, 53.5493877], [9.9556213, 53.5495182], [9.9556681, 53.5495411], [9.9558288, 53.5495412], [9.9559216, 53.5499025], [9.956044, 53.5504854], [9.9560566, 53.5506103], [9.9561113, 53.5510672], [9.9561186, 53.5510968], [9.9561372, 53.5512757], [9.9561833, 53.5514089], [9.9562907, 53.5517928], [9.9568161, 53.5528747], [9.9569183, 53.5531368], [9.9568592, 53.5531497], [9.956868, 53.5531803], [9.9569312, 53.553401], [9.9569992, 53.5536008], [9.9571975, 53.5540549], [9.957794, 53.5554354], [9.9584188, 53.5569081], [9.9596878, 53.5599439], [9.9598091, 53.5601319], [9.959878, 53.5602173], [9.9599233, 53.5602374], [9.9608656, 53.5598741], [9.9615672, 53.5594713], [9.9637529, 53.558359], [9.9641146, 53.5578082], [9.9643477, 53.5572539], [9.9644238, 53.5572055], [9.9646218, 53.5572106], [9.9646335, 53.5570762], [9.9673781, 53.5573553], [9.9676687, 53.5573656], [9.9676633, 53.5574731], [9.967327, 53.55764], [9.9670282, 53.5601163], [9.9671924, 53.5601123], [9.9673267, 53.5603919], [9.9677801, 53.5603075], [9.9682459, 53.561095], [9.9675761, 53.5612197], [9.9681298, 53.5622421], [9.9681757, 53.5622886], [9.9681862, 53.5624965], [9.9661766, 53.5624591], [9.9659421, 53.5625481], [9.9656843, 53.5630588], [9.9656534, 53.5633665], [9.9657335, 53.5633693], [9.9692311, 53.5634893], [9.9695599, 53.5635014], [9.9706605, 53.5635419], [9.970687, 53.5633956], [9.9705636, 53.5633714], [9.9705741, 53.5632019], [9.9705919, 53.5632028], [9.9716307, 53.5632184], [9.9715962, 53.5637037], [9.9755779, 53.5637901], [9.9767688, 53.5637765], [9.9826746, 53.5637833], [9.9831654, 53.5638046], [9.9838506, 53.5637151], [9.9845507, 53.5635543], [9.985032, 53.5633899], [9.9851238, 53.5633606], [9.9862605, 53.5627319], [9.9872538, 53.5621701], [9.9880844, 53.56164], [9.9881827, 53.5616344], [9.9882589, 53.5615816], [9.9882763, 53.5614705], [9.9886904, 53.5611886], [9.9887434, 53.5611519], [9.9888521, 53.5611565], [9.9892363, 53.5608705], [9.9891779, 53.5608441], [9.9894729, 53.560617], [9.9895306, 53.5606393], [9.9902942, 53.5600495], [9.9904474, 53.5599346], [9.9904773, 53.559781], [9.9910113, 53.5594035], [9.9913415, 53.5591892], [9.9916152, 53.5591037], [9.9920322, 53.5588752], [9.9920161, 53.5587755], [9.9920778, 53.5587355], [9.993094, 53.5582485], [9.9933452, 53.5582409], [9.9936099, 53.5581145], [9.9936025, 53.5580031], [9.9943988, 53.5577191], [9.9950667, 53.557564], [9.9973681, 53.5569902], [9.9974811, 53.5571285], [9.9980607, 53.5578436], [10.0082327, 53.5652488], [10.0146728, 53.5619792], [10.0154482, 53.5615916], [10.0158424, 53.561398], [10.0161512, 53.5615914], [10.0163055, 53.5615866], [10.0163626, 53.5615683], [10.016496, 53.5614718], [10.0166958, 53.5613056], [10.0169138, 53.5611652], [10.017063, 53.5611095], [10.0172181, 53.5610685], [10.0182682, 53.5608681], [10.0212301, 53.5593414], [10.0224597, 53.5585452], [10.0235545, 53.5581109], [10.024783, 53.5574219], [10.0255465, 53.5569262], [10.0259853, 53.5566465], [10.0260062, 53.5565305], [10.0260195, 53.556489], [10.0262258, 53.5564028], [10.0263561, 53.5563894], [10.0267019, 53.5566807], [10.0270453, 53.5564618], [10.0272057, 53.5564526], [10.0274351, 53.5565222], [10.0280429, 53.5569105], [10.0288039, 53.5572737], [10.029934, 53.5577204], [10.0312426, 53.5583099], [10.0318833, 53.5585075], [10.0350876, 53.5598177], [10.0360551, 53.5602756], [10.0370099, 53.5606279], [10.0370416, 53.5605949], [10.0374994, 53.5607621], [10.0374457, 53.5608098], [10.0376053, 53.5608608], [10.0377683, 53.5608787], [10.0380169, 53.5610142], [10.0392385, 53.56153], [10.0403864, 53.5619726], [10.0413762, 53.5623521], [10.0424212, 53.5626254], [10.0440316, 53.5629827], [10.0448978, 53.5631503], [10.0460938, 53.5633071], [10.0471237, 53.5634071], [10.0487603, 53.5634796], [10.0509676, 53.5636269], [10.0514584, 53.5636408], [10.0522305, 53.5637287], [10.0533387, 53.5638852], [10.0540757, 53.5640207], [10.0572202, 53.5647994], [10.0572486, 53.5648482], [10.0575826, 53.5649341], [10.0576464, 53.5649012], [10.060582, 53.5656239], [10.0605778, 53.5656795], [10.0622369, 53.5661079], [10.0646361, 53.5622805], [10.0661032, 53.559881], [10.0673787, 53.5597301], [10.0685466, 53.5595423], [10.0685909, 53.5595844], [10.0690532, 53.559552], [10.0691272, 53.5595695], [10.069376, 53.5596952], [10.0697958, 53.5597995], [10.0698294, 53.5598222], [10.0697513, 53.5598529], [10.0697057, 53.5600529], [10.0705531, 53.5600916], [10.0710256, 53.5605081], [10.0728463, 53.5612716], [10.0728001, 53.5613411], [10.0732198, 53.56148], [10.0731645, 53.5616293], [10.0732627, 53.5616504], [10.0732505, 53.5617149], [10.0755411, 53.5619821], [10.0756428, 53.5618076], [10.0785006, 53.562283], [10.0794789, 53.5624393], [10.0807951, 53.562581], [10.0838279, 53.5628446], [10.0869134, 53.5631219], [10.086828, 53.5632199], [10.0870697, 53.5632742], [10.0871758, 53.5631359], [10.0891347, 53.5633312], [10.0944271, 53.563839], [10.0944682, 53.5639069], [10.0946621, 53.5639327], [10.0947212, 53.5638685], [10.0984814, 53.5643641], [10.1004926, 53.5646544], [10.1039444, 53.5651479], [10.1051776, 53.5652999], [10.1074876, 53.565535], [10.1146605, 53.5661695], [10.1217196, 53.5668838], [10.1224758, 53.5669815], [10.1250037, 53.5672116], [10.1281512, 53.5673577], [10.1300159, 53.5673535], [10.1325026, 53.5672305], [10.133371, 53.5671602], [10.1333818, 53.5672223], [10.1340623, 53.5671618], [10.1340509, 53.5670779], [10.1353186, 53.5669697], [10.1366539, 53.5668123], [10.1392985, 53.5663419], [10.139511, 53.5663601], [10.1396586, 53.5662694], [10.1423465, 53.5656157], [10.14243, 53.5656772], [10.1427378, 53.5656255], [10.1427127, 53.5655364], [10.1477125, 53.5643859], [10.1477511, 53.5642493], [10.1480258, 53.5640097], [10.1523135, 53.562925], [10.1522466, 53.5628541], [10.1526498, 53.5627568], [10.1527484, 53.5628136], [10.1540098, 53.5624534], [10.1540453, 53.5623759], [10.1549503, 53.5620946], [10.1551614, 53.5621171], [10.1565876, 53.5616878], [10.157884, 53.5613551], [10.1581663, 53.561287], [10.1590524, 53.561121], [10.1604869, 53.5609663], [10.1587289, 53.5602709], [10.15924, 53.5598894], [10.1595809, 53.559335], [10.1598272, 53.5590791], [10.1599029, 53.558873], [10.1600538, 53.558652], [10.160126, 53.5585227], [10.1602127, 53.5584721], [10.1602708, 53.5576371], [10.1602748, 53.5574176], [10.1600866, 53.5571262], [10.1599536, 53.5568242], [10.1598852, 53.5563691], [10.1597115, 53.5560685], [10.1597795, 53.5556774], [10.159605, 53.5554664], [10.159551, 53.5553864], [10.1594609, 53.5552188], [10.1593159, 53.5548683], [10.1588336, 53.5545712], [10.1582543, 53.5543735], [10.1579363, 53.5541681], [10.157352, 53.55401], [10.1569384, 53.5536396], [10.1568002, 53.5535146], [10.1566808, 53.5533151], [10.1567655, 53.5529076], [10.1564931, 53.552501], [10.1562251, 53.5523235], [10.1556299, 53.5523593], [10.1501924, 53.548726], [10.1484384, 53.5459771], [10.151538, 53.544814], [10.1521179, 53.5438148], [10.1521208, 53.5437469], [10.1521894, 53.5437458], [10.152486, 53.5431772], [10.1523639, 53.5427243], [10.1519888, 53.5421759], [10.151827, 53.5421132], [10.1517778, 53.5421014], [10.1518713, 53.5416989], [10.1519938, 53.5410824], [10.1521334, 53.5405742], [10.1522995, 53.5401342], [10.1523387, 53.5399742], [10.1535007, 53.5400152], [10.154102, 53.5381744], [10.1543903, 53.5372404], [10.1546877, 53.5364176], [10.1522671, 53.5356919], [10.151885, 53.5356216], [10.1518741, 53.5354775], [10.1522724, 53.5355445], [10.1529698, 53.5358418], [10.1534821, 53.5360052], [10.1550545, 53.536489], [10.1557352, 53.5366138], [10.1560038, 53.5367171], [10.1565266, 53.5367283], [10.1567158, 53.5367131], [10.1568247, 53.5367321], [10.1571915, 53.5367097], [10.1572902, 53.5367403], [10.1572348, 53.5368586], [10.1572621, 53.5371375], [10.1573555, 53.5373703], [10.1574829, 53.5373915], [10.1575999, 53.5373333], [10.1579525, 53.5373964], [10.1580201, 53.5373963], [10.1582489, 53.5373954], [10.1587186, 53.5372265], [10.1588968, 53.5372287], [10.1591099, 53.5374834], [10.1595005, 53.5377085], [10.1597716, 53.5377291], [10.1600582, 53.5376706], [10.1602051, 53.5376837], [10.1603021, 53.5377369], [10.1603068, 53.537805], [10.1601526, 53.5380613], [10.1601178, 53.5381567], [10.1601802, 53.538207], [10.1602554, 53.5382201], [10.1603747, 53.5381663], [10.1605252, 53.5380141], [10.1610716, 53.5378549], [10.1612106, 53.5377697], [10.1613575, 53.5377456], [10.1615455, 53.5377869], [10.1626409, 53.5377054], [10.162616, 53.5376083], [10.1644015, 53.5374654], [10.1644404, 53.5375754], [10.1679965, 53.5372958], [10.1680129, 53.5373097], [10.1680729, 53.5376214], [10.1683131, 53.5375019], [10.1685054, 53.5374519], [10.1686028, 53.5374155], [10.168776, 53.5373854], [10.1686633, 53.5358202], [10.1685834, 53.5346931], [10.1684867, 53.5347333], [10.1659085, 53.5347362], [10.1656083, 53.5346253], [10.1653485, 53.5341835], [10.1651649, 53.5337755], [10.1653193, 53.5335633], [10.1653119, 53.5330752], [10.1651216, 53.532793], [10.1646646, 53.5322767], [10.1645934, 53.532197], [10.1643724, 53.532049], [10.1639352, 53.5319325], [10.1637786, 53.5318261], [10.1636496, 53.5315073], [10.1635532, 53.5313801], [10.163042, 53.5307871], [10.1635015, 53.5301346], [10.1638311, 53.5297255], [10.1639939, 53.5291891], [10.162901, 53.5284412], [10.1625161, 53.5278766], [10.1619115, 53.5268401], [10.1617123, 53.5261003], [10.1617774, 53.5253412], [10.1623193, 53.523035], [10.1623307, 53.5229864], [10.1589564, 53.5228107], [10.1591376, 53.5223977], [10.1593107, 53.5220033], [10.1567357, 53.519711], [10.1562879, 53.5193147], [10.1558133, 53.5193892], [10.1551749, 53.51965], [10.1550825, 53.5195466], [10.155105, 53.5194738], [10.1544741, 53.5191032], [10.1542464, 53.5190615], [10.1521539, 53.5200112], [10.1511784, 53.5205823], [10.151055, 53.5205112], [10.1491345, 53.5213869], [10.1455458, 53.5228406], [10.1455609, 53.5229359], [10.1432174, 53.5237738], [10.1429186, 53.5238678], [10.1409903, 53.5246161], [10.1401912, 53.5249354], [10.1386147, 53.5254944], [10.137403, 53.5259213], [10.1368261, 53.5261574], [10.1362117, 53.5264164], [10.136116, 53.5263924], [10.1357131, 53.5263561], [10.1353623, 53.5260671], [10.1343693, 53.5260357], [10.13436, 53.5258289], [10.1328193, 53.5246788], [10.1323454, 53.5244257], [10.1319783, 53.5242751], [10.1315215, 53.5241934], [10.1311071, 53.5241361], [10.130491, 53.5241441], [10.1300134, 53.5240596], [10.1293619, 53.5237231], [10.1287727, 53.5232539], [10.1285022, 53.523248], [10.1284837, 53.5231482], [10.1283836, 53.523049], [10.126269, 53.5217571], [10.1241295, 53.5204759], [10.1226336, 53.5196486], [10.1224639, 53.519666], [10.1223665, 53.5196182], [10.1220788, 53.5198397]]], [[[8.5572006, 53.8611518], [8.5338059, 53.8852572], [8.4383556, 53.8925975], [8.4341314, 53.8929325], [8.429328, 53.8932944], [8.4290333, 53.8934167], [8.3390333, 53.9300833], [8.2908333, 53.95], [8.2592167, 53.962], [8.2109892, 53.9807155], [8.1044993, 54.02505], [8.394369, 54.02765], [8.504219, 53.9569092], [8.5365167, 53.9360032], [8.5456774, 53.9300833], [8.5606667, 53.9050833], [8.5619009, 53.8987535], [8.5621635, 53.8974068], [8.5683376, 53.8753112], [8.5760454, 53.8450037], [8.575606, 53.8444764], [8.5753768, 53.8441856], [8.5747146, 53.843377], [8.5737038, 53.8445303], [8.5735543, 53.8445591], [8.5572006, 53.8611518]]]]}, "properties": {"osm_id": 28971, "name": "Hamburg-Mitte"}}]}