{
  "type": "FeatureCollection",
  "features": [
    {
      "type": "Feature",
      "geometry": {
        "type": "Point",
        "coordinates": [
          10.0158199,
          53.5555801
        ]
      },
      "properties": {
        "osm_id": 2338926757,
        "name": null,
        "operator": "ARCOTEL Rubin",
        "access": null,
        "lat": 53.5555801,
        "lon": 10.0158199
      }
    },
    {
      "type": "Feature",
      "geometry": {
        "type": "Point",
        "coordinates": [
          9.9827013,
          53.5594931
        ]
      },
      "properties": {
        "osm_id": 2451944912,
        "name": null,
        "operator": null,
        "access": null,
        "lat": 53.5594931,
        "lon": 9.9827013
      }
    },
    {
      "type": "Feature",
      "geometry": {
        "type": "Point",
        "coordinates": [
          10.032411,
          53.5506513
        ]
      },
      "properties": {
        "osm_id": 2458359657,
        "name": null,
        "operator": null,
        "access": null,
        "lat": 53.5506513,
        "lon": 10.032411
      }
    },
    {
      "type": "Feature",
      "geometry": {
        "type": "Point",
        "coordinates": [
          9.9851336,
          53.5566781
        ]
      },
      "properties": {
        "osm_id": 2712496834,
        "name": null,
        "operator": null,
        "access": null,
        "lat": 53.5566781,
        "lon": 9.9851336
      }
    },
    {
      "type": "Feature",
      "geometry": {
        "type": "Point",
        "coordinates": [
          9.9770052,
          53.5532703
        ]
      },
      "properties": {
        "osm_id": 2858746766,
        "name": null,
        "operator": null,
        "access": null,
        "lat": 53.5532703,
        "lon": 9.9770052
      }
    },
    {
      "type": "Feature",
      "geometry": {
        "type": "Point",
        "coordinates": [
          9.9823937,
          53.5569777
        ]
      },
      "properties": {
        "osm_id": 2923880968,
        "name": null,
        "operator": null,
        "access": null,
        "lat": 53.5569777,
        "lon": 9.9823937
      }
    },
    {
      "type": "Feature",
      "geometry": {
        "type": "Point",
        "coordinates": [
          9.9751823,
          53.5551979
        ]
      },
      "properties": {
        "osm_id": 3325532605,
        "name": null,
        "operator": null,
        "access": null,
        "lat": 53.5551979,
        "lon": 9.9751823
      }
    },
    {
      "type": "Feature",
      "geometry": {
        "type": "Point",
        "coordinates": [
          10.0138505,
          53.5458877
        ]
      },
      "properties": {
        "osm_id": 3443293398,
        "name": null,
        "operator": "Prizeotel",
        "access": null,
        "lat": 53.5458877,
        "lon": 10.0138505
      }
    },
    {
      "type": "Feature",
      "geometry": {
        "type": "Point",
        "coordinates": [
          9.967994,
          53.5469634
        ]
      },
      "properties": {
        "osm_id": 3590738351,
        "name": null,
        "operator": null,
        "access": null,
        "lat": 53.5469634,
        "lon": 9.967994
      }
    },
    {
      "type": "Feature",
      "geometry": {
        "type": "Point",
        "coordinates": [
          10.0212931,
          53.545269
        ]
      },
      "properties": {
        "osm_id": 3603697380,
        "name": null,
        "operator": null,
        "access": null,
        "lat": 53.545269,
        "lon": 10.0212931
      }
    },
    {
      "type": "Feature",
      "geometry": {
        "type": "Point",
        "coordinates": [
          9.9881069,
          53.5530022
        ]
      },
      "properties": {
        "osm_id": 3953506978,
        "name": null,
        "operator": null,
        "access": null,
        "lat": 53.5530022,
        "lon": 9.9881069
      }
    },
    {
      "type": "Feature",
      "geometry": {
        "type": "Point",
        "coordinates": [
          9.9962545,
          53.5513925
        ]
      },
      "properties": {
        "osm_id": 3966894112,
        "name": null,
        "operator": null,
        "access": "yes",
        "lat": 53.5513925,
        "lon": 9.9962545
      }
    },
    {
      "type": "Feature",
      "geometry": {
        "type": "Point",
        "coordinates": [
          9.9887896,
          53.5537281
        ]
      },
      "properties": {
        "osm_id": 4002427708,
        "name": null,
        "operator": null,
        "access": null,
        "lat": 53.5537281,
        "lon": 9.9887896
      }
    },
    {
      "type": "Feature",
      "geometry": {
        "type": "Point",
        "coordinates": [
          9.9656215,
          53.5468792
        ]
      },
      "properties": {
        "osm_id": 4160068089,
        "name": null,
        "operator": null,
        "access": null,
        "lat": 53.5468792,
        "lon": 9.9656215
      }
    },
    {
      "type": "Feature",
      "geometry": {
        "type": "Point",
        "coordinates": [
          10.0015211,
          53.5483446
        ]
      },
      "properties": {
        "osm_id": 4386410528,
        "name": null,
        "operator": null,
        "access": null,
        "lat": 53.5483446,
        "lon": 10.0015211
      }
    },
    {
      "type": "Feature",
      "geometry": {
        "type": "Point",
        "coordinates": [
          9.9668678,
          53.5480708
        ]
      },
      "properties": {
        "osm_id": 4739944574,
        "name": "Lobby LichtBlick SE",
        "operator": null,
        "access": null,
        "lat": 53.5480708,
        "lon": 9.9668678
      }
    },
    {
      "type": "Feature",
      "geometry": {
        "type": "Point",
        "coordinates": [
          10.004071,
          53.497599
        ]
      },
      "properties": {
        "osm_id": 5377857522,
        "name": null,
        "operator": null,
        "access": "yes",
        "lat": 53.497599,
        "lon": 10.004071
      }
    },
    {
      "type": "Feature",
      "geometry": {
        "type": "Point",
        "coordinates": [
          10.0073685,
          53.5536097
        ]
      },
      "properties": {
        "osm_id": 5454323974,
        "name": null,
        "operator": null,
        "access": "yes",
        "lat": 53.5536097,
        "lon": 10.0073685
      }
    },
    {
      "type": "Feature",
      "geometry": {
        "type": "Point",
        "coordinates": [
          10.0223621,
          53.5465131
        ]
      },
      "properties": {
        "osm_id": 5524205382,
        "name": null,
        "operator": null,
        "access": null,
        "lat": 53.5465131,
        "lon": 10.0223621
      }
    },
    {
      "type": "Feature",
      "geometry": {
        "type": "Point",
        "coordinates": [
          10.0015647,
          53.5425993
        ]
      },
      "properties": {
        "osm_id": 5880920245,
        "name": null,
        "operator": "HafenCity GmbH, subshell GmbH",
        "access": "permissive",
        "lat": 53.5425993,
        "lon": 10.0015647
      }
    },
    {
      "type": "Feature",
      "geometry": {
        "type": "Point",
        "coordinates": [
          10.0097636,
          53.5513338
        ]
      },
      "properties": {
        "osm_id": 6420593928,
        "name": null,
        "operator": null,
        "access": "yes",
        "lat": 53.5513338,
        "lon": 10.0097636
      }
    },
    {
      "type": "Feature",
      "geometry": {
        "type": "Point",
        "coordinates": [
          9.9665667,
          53.5059634
        ]
      },
      "properties": {
        "osm_id": 6549441022,
        "name": null,
        "operator": null,
        "access": null,
        "lat": 53.5059634,
        "lon": 9.9665667
      }
    },
    {
      "type": "Feature",
      "geometry": {
        "type": "Point",
        "coordinates": [
          10.0076938,
          53.5583707
        ]
      },
      "properties": {
        "osm_id": 8548381603,
        "name": null,
        "operator": "Le Royal Méridien",
        "access": "permissive",
        "lat": 53.5583707,
        "lon": 10.0076938
      }
    },
    {
      "type": "Feature",
      "geometry": {
        "type": "Point",
        "coordinates": [
          10.0074522,
          53.5583521
        ]
      },
      "properties": {
        "osm_id": 8548381604,
        "name": null,
        "operator": "Le Royal Méridien",
        "access": "fixme",
        "lat": 53.5583521,
        "lon": 10.0074522
      }
    },
    {
      "type": "Feature",
      "geometry": {
        "type": "Point",
        "coordinates": [
          10.0030755,
          53.4995805
        ]
      },
      "properties": {
        "osm_id": 9357732421,
        "name": null,
        "operator": null,
        "access": null,
        "lat": 53.4995805,
        "lon": 10.0030755
      }
    },
    {
      "type": "Feature",
      "geometry": {
        "type": "Point",
        "coordinates": [
          10.0241527,
          53.5485773
        ]
      },
      "properties": {
        "osm_id": 9899959560,
        "name": null,
        "operator": "Björn Steiger Stiftung",
        "access": null,
        "lat": 53.5485773,
        "lon": 10.0241527
      }
    },
    {
      "type": "Feature",
      "geometry": {
        "type": "Point",
        "coordinates": [
          9.8682815,
          53.5363642
        ]
      },
      "properties": {
        "osm_id": 10045300175,
        "name": null,
        "operator": null,
        "access": null,
        "lat": 53.5363642,
        "lon": 9.8682815
      }
    },
    {
      "type": "Feature",
      "geometry": {
        "type": "Point",
        "coordinates": [
          10.0363792,
          53.5416712
        ]
      },
      "properties": {
        "osm_id": 11186145844,
        "name": null,
        "operator": null,
        "access": null,
        "lat": 53.5416712,
        "lon": 10.0363792
      }
    },
    {
      "type": "Feature",
      "geometry": {
        "type": "Point",
        "coordinates": [
          10.0305294,
          53.5459349
        ]
      },
      "properties": {
        "osm_id": 11304389068,
        "name": null,
        "operator": null,
        "access": null,
        "lat": 53.5459349,
        "lon": 10.0305294
      }
    },
    {
      "type": "Feature",
      "geometry": {
        "type": "Point",
        "coordinates": [
          9.9839757,
          53.5549368
        ]
      },
      "properties": {
        "osm_id": 11739444440,
        "name": null,
        "operator": null,
        "access": null,
        "lat": 53.5549368,
        "lon": 9.9839757
      }
    },
    {
      "type": "Feature",
      "geometry": {
        "type": "Point",
        "coordinates": [
          9.9945491,
          53.5431304
        ]
      },
      "properties": {
        "osm_id": 11916037969,
        "name": null,
        "operator": null,
        "access": null,
        "lat": 53.5431304,
        "lon": 9.9945491
      }
    },
    {
      "type": "Feature",
      "geometry": {
        "type": "Point",
        "coordinates": [
          10.0525288,
          53.5243356
        ]
      },
      "properties": {
        "osm_id": 11950553556,
        "name": null,
        "operator": null,
        "access": null,
        "lat": 53.5243356,
        "lon": 10.0525288
      }
    },
    {
      "type": "Feature",
      "geometry": {
        "type": "Point",
        "coordinates": [
          9.9888515,
          53.5436382
        ]
      },
      "properties": {
        "osm_id": 11956338029,
        "name": null,
        "operator": null,
        "access": null,
        "lat": 53.5436382,
        "lon": 9.9888515
      }
    },
    {
      "type": "Feature",
      "geometry": {
        "type": "Point",
        "coordinates": [
          9.9821124,
          53.5559184
        ]
      },
      "properties": {
        "osm_id": 12116959301,
        "name": null,
        "operator": null,
        "access": "customers",
        "lat": 53.5559184,
        "lon": 9.9821124
      }
    },
    {
      "type": "Feature",
      "geometry": {
        "type": "Point",
        "coordinates": [
          10.0008585,
          53.5552468
        ]
      },
      "properties": {
        "osm_id": 12218673873,
        "name": null,
        "operator": null,
        "access": null,
        "lat": 53.5552468,
        "lon": 10.0008585
      }
    },
    {
      "type": "Feature",
      "geometry": {
        "type": "Point",
        "coordinates": [
          10.0026268,
          53.547918
        ]
      },
      "properties": {
        "osm_id": 12230253344,
        "name": null,
        "operator": null,
        "access": null,
        "lat": 53.547918,
        "lon": 10.0026268
      }
    },
    {
      "type": "Feature",
      "geometry": {
        "type": "Point",
        "coordinates": [
          10.002361,
          53.5005169
        ]
      },
      "properties": {
        "osm_id": 12507647512,
        "name": null,
        "operator": null,
        "access": null,
        "lat": 53.5005169,
        "lon": 10.002361
      }
    },
    {
      "type": "Feature",
      "geometry": {
        "type": "Point",
        "coordinates": [
          10.0086522,
          53.5596971
        ]
      },
      "properties": {
        "osm_id": 12620938489,
        "name": null,
        "operator": null,
        "access": null,
        "lat": 53.5596971,
        "lon": 10.0086522
      }
    },
    {
      "type": "Feature",
      "geometry": {
        "type": "Point",
        "coordinates": [
          10.0181797,
          53.5493712
        ]
      },
      "properties": {
        "osm_id": 12632665301,
        "name": null,
        "operator": null,
        "access": "customers",
        "lat": 53.5493712,
        "lon": 10.0181797
      }
    },
    {
      "type": "Feature",
      "geometry": {
        "type": "Point",
        "coordinates": [
          9.9676811,
          53.5493369
        ]
      },
      "properties": {
        "osm_id": 12728640935,
        "name": null,
        "operator": "Arcor",
        "access": "yes",
        "lat": 53.5493369,
        "lon": 9.9676811
      }
    },
    {
      "type": "Feature",
      "geometry": {
        "type": "Point",
        "coordinates": [
          9.9905612,
          53.5487088
        ]
      },
      "properties": {
        "osm_id": 12927362709,
        "name": null,
        "operator": null,
        "access": null,
        "lat": 53.5487088,
        "lon": 9.9905612
      }
    },
    {
      "type": "Feature",
      "geometry": {
        "type": "Point",
        "coordinates": [
          9.9904297,
          53.5523955
        ]
      },
      "properties": {
        "osm_id": 13195378701,
        "name": null,
        "operator": null,
        "access": "customers",
        "lat": 53.5523955,
        "lon": 9.9904297
      }
    },
    {
      "type": "Feature",
      "geometry": {
        "type": "Point",
        "coordinates": [
          10.1059355,
          53.5420781
        ]
      },
      "properties": {
        "osm_id": 13322612501,
        "name": null,
        "operator": null,
        "access": "yes",
        "lat": 53.5420781,
        "lon": 10.1059355
      }
    },
    {
      "type": "Feature",
      "geometry": {
        "type": "Point",
        "coordinates": [
          9.9891763,
          53.5546287
        ]
      },
      "properties": {
        "osm_id": 13426787001,
        "name": null,
        "operator": "Globetrotter",
        "access": "customers",
        "lat": 53.5546287,
        "lon": 9.9891763
      }
    },
    {
      "type": "Feature",
      "geometry": {
        "type": "Point",
        "coordinates": [
          10.0210944,
          53.5537763
        ]
      },
      "properties": {
        "osm_id": 13457531601,
        "name": null,
        "operator": "IBM Deutschland GmbH ",
        "access": "private",
        "lat": 53.5537763,
        "lon": 10.0210944
      }
    },
    {
      "type": "Feature",
      "geometry": {
        "type": "Point",
        "coordinates": [
          10.0217305,
          53.5564575
        ]
      },
      "properties": {
        "osm_id": 13732055602,
        "name": null,
        "operator": null,
        "access": null,
        "lat": 53.5564575,
        "lon": 10.0217305
      }
    },
    {
      "type": "Feature",
      "geometry": {
        "type": "Point",
        "coordinates": [
          9.9847286,
          53.5564402
        ]
      },
      "properties": {
        "osm_id": 13831992505,
        "name": null,
        "operator": "BRL",
        "access": "private",
        "lat": 53.5564402,
        "lon": 9.9847286
      }
    },
    {
      "type": "Feature",
      "geometry": {
        "type": "Point",
        "coordinates": [
          9.9847733,
          53.5564392
        ]
      },
      "properties": {
        "osm_id": 13831992506,
        "name": null,
        "operator": "BRL",
        "access": "private",
        "lat": 53.5564392,
        "lon": 9.9847733
      }
    }
  ]
}